start=new Date('2022-11-17T00:00:00.000Z').valueOf();
sats=[{"REV_AT_EPOCH":"1886","APOAPSIS":"541.622","EPHEMERIS_TYPE":"0","ELEMENT_SET_NO":"999","ARG_OF_PERICENTER":"29.8172","SEMIMAJOR_AXIS":"6917.844","RA_OF_ASC_NODE":"190.9008","MEAN_MOTION_DOT":"0.00004829","SITE":"AFETR","CENTER_NAME":"EARTH","EPOCH":"2022-11-16T19:51:26.601408","MEAN_MOTION":"15.08851818","MEAN_MOTION_DDOT":"0.0000000000000","TLE_LINE1":"1 53159U 22083AD  22320.82739122  .00004829  00000-0  32117-3 0  9991","REF_FRAME":"TEME","PERIAPSIS":"537.796","COUNTRY_CODE":"US","OBJECT_ID":"2022-083AD","NORAD_CAT_ID":"53159","MEAN_ELEMENT_THEORY":"SGP4","RCS_SIZE":"LARGE","ECCENTRICITY":"0.00027650","GP_ID":"218018232","INCLINATION":"53.2162","TLE_LINE2":"2 53159  53.2162 190.9008 0002765  29.8172 330.2977 15.08851818 18869","LAUNCH_DATE":"2022-07-17","OBJECT_NAME":"STARLINK-4111","MEAN_ANOMALY":"330.2977","FILE":"3660705","BSTAR":"0.00032117000000","DECAY_DATE":null,"OBJECT_TYPE":"PAYLOAD","PERIOD":"95.437","CLASSIFICATION_TYPE":"U","TIME_SYSTEM":"UTC"},{"TIME_SYSTEM":"UTC","CLASSIFICATION_TYPE":"U","PERIOD":"95.437","OBJECT_TYPE":"PAYLOAD","DECAY_DATE":null,"BSTAR":"0.00020932000000","FILE":"3659788","MEAN_ANOMALY":"298.4179","OBJECT_NAME":"STARLINK-4096","INCLINATION":"53.2159","TLE_LINE2":"2 53160  53.2159 192.9372 0001515  61.6966 298.4179 15.08844982 18795","LAUNCH_DATE":"2022-07-17","GP_ID":"217973983","ECCENTRICITY":"0.00015150","RCS_SIZE":"LARGE","MEAN_ELEMENT_THEORY":"SGP4","NORAD_CAT_ID":"53160","COUNTRY_CODE":"US","OBJECT_ID":"2022-083AE","PERIAPSIS":"538.682","REF_FRAME":"TEME","TLE_LINE1":"1 53160U 22083AE  22320.37475642  .00003045  00000-0  20932-3 0  9998","MEAN_MOTION_DDOT":"0.0000000000000","MEAN_MOTION":"15.08844982","EPOCH":"2022-11-16T08:59:38.954688","CENTER_NAME":"EARTH","SITE":"AFETR","MEAN_MOTION_DOT":"0.00003045","RA_OF_ASC_NODE":"192.9372","SEMIMAJOR_AXIS":"6917.865","ARG_OF_PERICENTER":"61.6966","ELEMENT_SET_NO":"999","EPHEMERIS_TYPE":"0","APOAPSIS":"540.778","REV_AT_EPOCH":"1879"},{"FILE":"3660705","BSTAR":"0.00025410000000","OBJECT_NAME":"STARLINK-4055","MEAN_ANOMALY":"301.9729","GP_ID":"218018887","TLE_LINE2":"2 53161  53.2184 190.9631 0001949  58.1452 301.9729 15.08857768 18867","LAUNCH_DATE":"2022-07-17","INCLINATION":"53.2184","ECCENTRICITY":"0.00019490","CLASSIFICATION_TYPE":"U","TIME_SYSTEM":"UTC","OBJECT_TYPE":"PAYLOAD","PERIOD":"95.436","DECAY_DATE":null,"EPOCH":"2022-11-16T19:35:32.712576","RA_OF_ASC_NODE":"190.9631","MEAN_MOTION_DOT":"0.00003760","SITE":"AFETR","CENTER_NAME":"EARTH","EPHEMERIS_TYPE":"0","ELEMENT_SET_NO":"999","ARG_OF_PERICENTER":"58.1452","SEMIMAJOR_AXIS":"6917.826","REV_AT_EPOCH":"1886","APOAPSIS":"541.039","MEAN_ELEMENT_THEORY":"SGP4","RCS_SIZE":"LARGE","COUNTRY_CODE":"US","NORAD_CAT_ID":"53161","OBJECT_ID":"2022-083AF","PERIAPSIS":"538.343","MEAN_MOTION":"15.08857768","MEAN_MOTION_DDOT":"0.0000000000000","TLE_LINE1":"1 53161U 22083AF  22320.81635084  .00003760  00000-0  25410-3 0  9996","REF_FRAME":"TEME"},{"REF_FRAME":"TEME","MEAN_MOTION_DDOT":"0.0000000000000","TLE_LINE1":"1 53162U 22083AG  22320.36741006 -.00003617  00000-0 -20928-3 0  9991","MEAN_MOTION":"15.08828781","PERIAPSIS":"538.202","NORAD_CAT_ID":"53162","COUNTRY_CODE":"US","OBJECT_ID":"2022-083AG","RCS_SIZE":"LARGE","MEAN_ELEMENT_THEORY":"SGP4","APOAPSIS":"541.358","REV_AT_EPOCH":"1879","SEMIMAJOR_AXIS":"6917.915","ARG_OF_PERICENTER":"68.0653","ELEMENT_SET_NO":"999","EPHEMERIS_TYPE":"0","CENTER_NAME":"EARTH","SITE":"AFETR","MEAN_MOTION_DOT":"-0.00003617","RA_OF_ASC_NODE":"192.9654","EPOCH":"2022-11-16T08:49:04.229184","DECAY_DATE":null,"PERIOD":"95.438","OBJECT_TYPE":"PAYLOAD","TIME_SYSTEM":"UTC","CLASSIFICATION_TYPE":"U","ECCENTRICITY":"0.00022810","LAUNCH_DATE":"2022-07-17","TLE_LINE2":"2 53162  53.2168 192.9654 0002281  68.0653 292.0581 15.08828781 18791","INCLINATION":"53.2168","GP_ID":"217974844","MEAN_ANOMALY":"292.0581","OBJECT_NAME":"STARLINK-4114","BSTAR":"-0.00020928000000","FILE":"3659788"},{"CENTER_NAME":"EARTH","SITE":"AFETR","MEAN_MOTION_DOT":"0.00001376","RA_OF_ASC_NODE":"190.9933","EPOCH":"2022-11-16T19:26:19.838112","APOAPSIS":"541.157","REV_AT_EPOCH":"1886","SEMIMAJOR_AXIS":"6917.858","ELEMENT_SET_NO":"999","ARG_OF_PERICENTER":"46.1335","EPHEMERIS_TYPE":"0","NORAD_CAT_ID":"53163","COUNTRY_CODE":"US","OBJECT_ID":"2022-083AH","RCS_SIZE":"LARGE","MEAN_ELEMENT_THEORY":"SGP4","REF_FRAME":"TEME","TLE_LINE1":"1 53163U 22083AH  22320.80995183  .00001376  00000-0  10454-3 0  9999","MEAN_MOTION_DDOT":"0.0000000000000","MEAN_MOTION":"15.08847472","PERIAPSIS":"538.288","MEAN_ANOMALY":"313.9829","OBJECT_NAME":"STARLINK-4104","BSTAR":"0.00010454000000","FILE":"3660705","ECCENTRICITY":"0.00020730","TLE_LINE2":"2 53163  53.2196 190.9933 0002073  46.1335 313.9829 15.08847472 18868","INCLINATION":"53.2196","LAUNCH_DATE":"2022-07-17","GP_ID":"218017889","TIME_SYSTEM":"UTC","CLASSIFICATION_TYPE":"U","DECAY_DATE":null,"PERIOD":"95.437","OBJECT_TYPE":"PAYLOAD"},{"OBJECT_NAME":"STARLINK-4116","MEAN_ANOMALY":"306.5719","FILE":"3660705","BSTAR":"0.00011066000000","ECCENTRICITY":"0.00017860","GP_ID":"218018399","LAUNCH_DATE":"2022-07-17","TLE_LINE2":"2 53164  53.2180 190.9401 0001786  53.5437 306.5719 15.08834804 18868","INCLINATION":"53.2180","CLASSIFICATION_TYPE":"U","TIME_SYSTEM":"UTC","DECAY_DATE":null,"OBJECT_TYPE":"PAYLOAD","PERIOD":"95.438","RA_OF_ASC_NODE":"190.9401","MEAN_MOTION_DOT":"0.00001473","CENTER_NAME":"EARTH","SITE":"AFETR","EPOCH":"2022-11-16T19:40:51.102624","REV_AT_EPOCH":"1886","APOAPSIS":"540.997","EPHEMERIS_TYPE":"0","ARG_OF_PERICENTER":"53.5437","ELEMENT_SET_NO":"999","SEMIMAJOR_AXIS":"6917.896","OBJECT_ID":"2022-083AJ","COUNTRY_CODE":"US","NORAD_CAT_ID":"53164","MEAN_ELEMENT_THEORY":"SGP4","RCS_SIZE":"LARGE","MEAN_MOTION":"15.08834804","MEAN_MOTION_DDOT":"0.0000000000000","TLE_LINE1":"1 53164U 22083AJ  22320.82003591  .00001473  00000-0  11066-3 0  9993","REF_FRAME":"TEME","PERIAPSIS":"538.526"},{"PERIOD":"95.437","OBJECT_TYPE":"PAYLOAD","DECAY_DATE":null,"TIME_SYSTEM":"UTC","CLASSIFICATION_TYPE":"U","TLE_LINE2":"2 53165  53.2187 191.0152 0002448  41.4225 318.6953 15.08848350 18863","LAUNCH_DATE":"2022-07-17","INCLINATION":"53.2187","GP_ID":"218018560","ECCENTRICITY":"0.00024480","BSTAR":"0.00032714000000","FILE":"3660705","MEAN_ANOMALY":"318.6953","OBJECT_NAME":"STARLINK-4090","PERIAPSIS":"538.026","REF_FRAME":"TEME","MEAN_MOTION_DDOT":"0.0000000000000","TLE_LINE1":"1 53165U 22083AK  22320.80531761  .00004923  00000-0  32714-3 0  9993","MEAN_MOTION":"15.08848350","RCS_SIZE":"LARGE","MEAN_ELEMENT_THEORY":"SGP4","COUNTRY_CODE":"US","OBJECT_ID":"2022-083AK","NORAD_CAT_ID":"53165","SEMIMAJOR_AXIS":"6917.855","ELEMENT_SET_NO":"999","ARG_OF_PERICENTER":"41.4225","EPHEMERIS_TYPE":"0","APOAPSIS":"541.413","REV_AT_EPOCH":"1886","EPOCH":"2022-11-16T19:19:39.441504","CENTER_NAME":"EARTH","SITE":"AFETR","MEAN_MOTION_DOT":"0.00004923","RA_OF_ASC_NODE":"191.0152"},{"PERIOD":"95.437","OBJECT_TYPE":"PAYLOAD","DECAY_DATE":null,"TIME_SYSTEM":"UTC","CLASSIFICATION_TYPE":"U","GP_ID":"217977994","TLE_LINE2":"2 53166  53.2192 194.2514 0001852  51.9400 308.1759 15.08843861 19384","LAUNCH_DATE":"2022-07-17","INCLINATION":"53.2192","ECCENTRICITY":"0.00018520","FILE":"3660071","BSTAR":"0.00022868000000","MEAN_ANOMALY":"308.1759","OBJECT_NAME":"STARLINK-4110","PERIAPSIS":"538.452","MEAN_MOTION":"15.08843861","REF_FRAME":"TEME","MEAN_MOTION_DDOT":"0.0000000000000","TLE_LINE1":"1 53166U 22083AL  22320.08403226  .00003354  00000-0  22868-3 0  9994","MEAN_ELEMENT_THEORY":"SGP4","RCS_SIZE":"LARGE","COUNTRY_CODE":"US","NORAD_CAT_ID":"53166","OBJECT_ID":"2022-083AL","ARG_OF_PERICENTER":"51.9400","ELEMENT_SET_NO":"999","EPHEMERIS_TYPE":"0","SEMIMAJOR_AXIS":"6917.869","APOAPSIS":"541.015","REV_AT_EPOCH":"1938","EPOCH":"2022-11-16T02:01:00.387264","RA_OF_ASC_NODE":"194.2514","CENTER_NAME":"EARTH","SITE":"AFETR","MEAN_MOTION_DOT":"0.00003354"},{"PERIAPSIS":"538.481","REF_FRAME":"TEME","TLE_LINE1":"1 53167U 22083AM  22320.89045058  .00000249  00000-0  33725-4 0  9994","MEAN_MOTION_DDOT":"0.0000000000000","MEAN_MOTION":"15.08830734","RCS_SIZE":"LARGE","MEAN_ELEMENT_THEORY":"SGP4","OBJECT_ID":"2022-083AM","COUNTRY_CODE":"US","NORAD_CAT_ID":"53167","SEMIMAJOR_AXIS":"6917.909","ELEMENT_SET_NO":"999","ARG_OF_PERICENTER":"46.2842","EPHEMERIS_TYPE":"0","APOAPSIS":"541.066","REV_AT_EPOCH":"1907","EPOCH":"2022-11-16T21:22:14.930112","SITE":"AFETR","CENTER_NAME":"EARTH","MEAN_MOTION_DOT":"0.00000249","RA_OF_ASC_NODE":"175.6189","PERIOD":"95.438","OBJECT_TYPE":"PAYLOAD","DECAY_DATE":null,"TIME_SYSTEM":"UTC","CLASSIFICATION_TYPE":"U","TLE_LINE2":"2 53167  53.2174 175.6189 0001868  46.2842 313.8305 15.08830734 19071","INCLINATION":"53.2174","LAUNCH_DATE":"2022-07-17","GP_ID":"218018233","ECCENTRICITY":"0.00018680","BSTAR":"0.00003372500000","FILE":"3660705","MEAN_ANOMALY":"313.8305","OBJECT_NAME":"STARLINK-3683"},{"PERIOD":"95.436","OBJECT_TYPE":"PAYLOAD","DECAY_DATE":null,"TIME_SYSTEM":"UTC","CLASSIFICATION_TYPE":"U","TLE_LINE2":"2 53168  53.2185 190.9979 0002327  46.6547 313.4639 15.08858402 18862","INCLINATION":"53.2185","LAUNCH_DATE":"2022-07-17","GP_ID":"218018726","ECCENTRICITY":"0.00023270","BSTAR":"0.00034818000000","FILE":"3660705","MEAN_ANOMALY":"313.4639","OBJECT_NAME":"STARLINK-4105","PERIAPSIS":"538.079","REF_FRAME":"TEME","TLE_LINE1":"1 53168U 22083AN  22320.80899357  .00005260  00000-0  34818-3 0  9996","MEAN_MOTION_DDOT":"0.0000000000000","MEAN_MOTION":"15.08858402","RCS_SIZE":"LARGE","MEAN_ELEMENT_THEORY":"SGP4","NORAD_CAT_ID":"53168","COUNTRY_CODE":"US","OBJECT_ID":"2022-083AN","SEMIMAJOR_AXIS":"6917.824","ARG_OF_PERICENTER":"46.6547","ELEMENT_SET_NO":"999","EPHEMERIS_TYPE":"0","APOAPSIS":"541.299","REV_AT_EPOCH":"1886","EPOCH":"2022-11-16T19:24:57.044448","SITE":"AFETR","CENTER_NAME":"EARTH","MEAN_MOTION_DOT":"0.00005260","RA_OF_ASC_NODE":"190.9979"}];
